FORMOSAT-5
1 42920U 17049A   18094.46593367 -.00000034  00000-0  28808-5 0  9992
2 42920  98.3646 171.1844 0009124 277.2648  82.7510 14.50799414 32296
